NORAD_CAT_ID,OBJECT_NAME,OBJECT_TYPE,EPOCH,MEAN_MOTION,ECCENTRICITY,INCLINATION,RA_OF_ASC_NODE,ARG_OF_PERICENTER,MEAN_ANOMALY,BSTAR,MEAN_MOTION_DOT,MEAN_MOTION_DDOT,TLE_LINE0,TLE_LINE1,TLE_LINE2,SEMIMAJOR_AXIS,PERIOD,APOGEE,PERIGEE,DECAYED
52472.0,STARLINK-3881,PAYLOAD,2024-06-06 10:26:55,15.08836893,0.0001394,53.219,57.825,83.3513,276.7638,-2.3947e-05,-6.69e-06,0.0,0 STARLINK-3881,1 52472U 22049X   24158.43535929 -.00000669  00000-0 -23947-4 0  9999,2 52472  53.2190  57.8250 0001394  83.3513 276.7638 15.08836893115444,6917.89,95.438,540.719,538.791,0.0
52472.0,STARLINK-3881,PAYLOAD,2024-06-07 23:00:47,15.08837453,0.0001186,53.2184,50.9844,86.1602,273.9525,0.00010737,1.421e-05,0.0,0 STARLINK-3881,1 52472U 22049X   24159.95887917  .00001421  00000-0  10737-3 0  9991,2 52472  53.2184  50.9844 0001186  86.1602 273.9525 15.08837453115671,6917.888,95.438,540.574,538.933,0.0
52472.0,STARLINK-3881,PAYLOAD,2024-06-08 02:11:32,15.08850881,0.0001193,53.2187,50.3908,86.0098,274.103,0.0001836,2.636e-05,0.0,0 STARLINK-3881,1 52472U 22049X   24160.09134896  .00002636  00000-0  18360-3 0  9998,2 52472  53.2187  50.3908 0001193  86.0098 274.1030 15.08850881115859,6917.847,95.437,540.537,538.887,0.0
52472.0,STARLINK-3881,PAYLOAD,2024-06-08 10:08:28,15.08840675,0.000104,53.219,48.9024,103.0931,257.0177,8.3265e-05,1.038e-05,0.0,0 STARLINK-3881,1 52472U 22049X   24160.42255659  .00001038  00000-0  83265-4 0  9998,2 52472  53.2190  48.9024 0001040 103.0931 257.0177 15.08840675115742,6917.878,95.438,540.463,539.024,0.0
52472.0,STARLINK-3881,PAYLOAD,2024-06-08 16:30:01,15.08838816,0.0001345,53.218,47.7133,102.4017,257.7126,3.9532e-05,3.41e-06,0.0,0 STARLINK-3881,1 52472U 22049X   24160.68752037  .00000341  00000-0  39532-4 0  9992,2 52472  53.2180  47.7133 0001345 102.4017 257.7126 15.08838816115942,6917.884,95.438,540.679,538.819,0.0
52472.0,STARLINK-3881,PAYLOAD,2024-06-08 22:51:33,15.0884507,0.0001447,53.2172,46.5242,99.8295,260.2861,8.5437e-05,1.072e-05,0.0,0 STARLINK-3881,1 52472U 22049X   24160.95247480  .00001072  00000-0  85437-4 0  9990,2 52472  53.2172  46.5242 0001447  99.8295 260.2861 15.08845070115823,6917.865,95.437,540.731,538.729,0.0
52472.0,STARLINK-3881,PAYLOAD,2024-06-09 21:06:58,15.08834907,0.0001281,53.2192,42.3657,86.7954,273.3185,5.3639e-06,-2.03e-06,0.0,0 STARLINK-3881,1 52472U 22049X   24161.87984417 -.00000203  00000-0  53639-5 0  9996,2 52472  53.2192  42.3657 0001281  86.7954 273.3185 15.08834907116127,6917.896,95.438,540.647,538.875,0.0
52472.0,STARLINK-3881,PAYLOAD,2024-06-09 22:42:21,15.08835208,0.0001283,53.2191,42.0676,85.8214,274.2924,7.2465e-06,-1.73e-06,0.0,0 STARLINK-3881,1 52472U 22049X   24161.94608398 -.00000173  00000-0  72465-5 0  9999,2 52472  53.2191  42.0676 0001283  85.8214 274.2924 15.08835208115973,6917.895,95.438,540.648,538.872,0.0
52472.0,STARLINK-3881,PAYLOAD,2024-06-10 01:53:07,15.08848225,0.0001309,53.2188,41.4709,90.8061,269.3081,-4.207e-05,-9.58e-06,0.0,0 STARLINK-3881,1 52472U 22049X   24162.07855766 -.00000958  00000-0 -42070-4 0  9997,2 52472  53.2188  41.4709 0001309  90.8061 269.3081 15.08848225116157,6917.855,95.437,540.626,538.815,0.0
52472.0,STARLINK-3881,PAYLOAD,2024-06-10 20:57:45,15.08837125,0.0001519,53.2189,37.9009,98.3042,261.8122,-2.9423e-06,-3.35e-06,0.0,0 STARLINK-3881,1 52472U 22049X   24162.87344486 -.00000335  00000-0 -29423-5 0  9994,2 52472  53.2189  37.9009 0001519  98.3042 261.8122 15.08837125116279,6917.889,95.438,540.805,538.703,0.0
52472.0,STARLINK-3881,PAYLOAD,2024-06-10 22:33:08,15.08843981,0.0001683,53.2185,37.6055,89.6088,270.5097,-1.6454e-05,-5.5e-06,0.0,0 STARLINK-3881,1 52472U 22049X   24162.93968223 -.00000550  00000-0 -16454-4 0  9990,2 52472  53.2185  37.6055 0001683  89.6088 270.5097 15.08843981116127,6917.868,95.437,540.897,538.569,0.0
52472.0,STARLINK-3881,PAYLOAD,2024-06-11 08:05:27,15.0883642,0.0001407,53.2191,35.8233,89.6977,270.4176,7.9265e-05,9.74e-06,0.0,0 STARLINK-3881,1 52472U 22049X   24163.33712361  .00000974  00000-0  79265-4 0  9992,2 52472  53.2191  35.8233 0001407  89.6977 270.4176 15.08836420116186,6917.891,95.438,540.73,538.783,0.0
52472.0,STARLINK-3881,PAYLOAD,2024-06-11 22:23:55,15.08848063,0.000139,53.2185,33.1453,87.3997,272.7154,9.6773e-05,1.253e-05,0.0,0 STARLINK-3881,1 52472U 22049X   24163.93327609  .00001253  00000-0  96773-4 0  9999,2 52472  53.2185  33.1453 0001390  87.3997 272.7154 15.08848063116437,6917.856,95.437,540.682,538.759,0.0
52472.0,STARLINK-3881,PAYLOAD,2024-06-12 20:39:20,15.08833846,0.0002056,53.2204,28.9943,124.0745,236.0443,-2.641e-05,-7.08e-06,0.0,0 STARLINK-3881,1 52472U 22049X   24164.86064990 -.00000708  00000-0 -26410-4 0  9990,2 52472  53.2204  28.9943 0002056 124.0745 236.0443 15.08833846116577,6917.899,95.438,541.187,538.342,0.0
52472.0,STARLINK-3881,PAYLOAD,2024-06-13 07:47:01,15.08836529,0.0001505,53.2193,26.9012,85.661,274.4554,7.2348e-06,-1.73e-06,0.0,0 STARLINK-3881,1 52472U 22049X   24165.32432848 -.00000173  00000-0  72348-5 0  9990,2 52472  53.2193  26.9012 0001505  85.6610 274.4554 15.08836529116480,6917.891,95.438,540.797,538.715,0.0
52472.0,STARLINK-3881,PAYLOAD,2024-06-13 22:05:29,15.08850636,0.0001473,53.2192,24.2246,93.3924,266.7237,1.2003e-06,-2.69e-06,0.0,0 STARLINK-3881,1 52472U 22049X   24165.92047930 -.00000269  00000-0  12003-5 0  9998,2 52472  53.2192  24.2246 0001473  93.3924 266.7237 15.08850636116574,6917.848,95.437,540.732,538.694,0.0
52472.0,STARLINK-3881,PAYLOAD,2024-06-14 07:37:48,15.08844595,0.000171,53.2198,22.4361,75.7913,284.3269,1.8008e-05,-1e-08,0.0,0 STARLINK-3881,1 52472U 22049X   24166.31792254 -.00000001  00000-0  18008-4 0  9992,2 52472  53.2198  22.4361 0001710  75.7913 284.3269 15.08844595116639,6917.866,95.437,540.914,538.548,0.0
52472.0,STARLINK-3881,PAYLOAD,2024-06-14 21:56:17,15.08832281,0.0001547,53.2192,19.7622,81.712,278.4047,1.975e-05,2.6e-07,0.0,0 STARLINK-3881,1 52472U 22049X   24166.91409173  .00000026  00000-0  19750-4 0  9994,2 52472  53.2192  19.7622 0001547  81.7120 278.4047 15.08832281116724,6917.904,95.438,540.839,538.699,0.0
52472.0,STARLINK-3881,PAYLOAD,2024-06-15 13:50:08,15.088419,0.0001566,53.2187,16.7911,82.5862,277.5308,4.2424e-05,3.87e-06,0.0,0 STARLINK-3881,1 52472U 22049X   24167.57648673  .00000387  00000-0  42424-4 0  9991,2 52472  53.2187  16.7911 0001566  82.5862 277.5308 15.08841900116828,6917.875,95.437,540.823,538.656,0.0
52472.0,STARLINK-3881,PAYLOAD,2024-06-15 20:11:40,15.08850054,0.0001177,53.2169,15.6013,97.2748,262.8378,2.6887e-05,1.4e-06,0.0,0 STARLINK-3881,1 52472U 22049X   24167.84144054  .00000140  00000-0  26887-4 0  9997,2 52472  53.2169  15.6013 0001177  97.2748 262.8378 15.08850054116861,6917.85,95.437,540.529,538.9,0.0
52472.0,STARLINK-3881,PAYLOAD,2024-06-16 07:19:22,15.08852282,0.0001221,53.2172,13.5201,92.8952,267.218,4.6265e-05,4.49e-06,0.0,0 STARLINK-3881,1 52472U 22049X   24168.30511640  .00000449  00000-0  46265-4 0  9992,2 52472  53.2172  13.5201 0001221  92.8952 267.2180 15.08852282116932,6917.843,95.437,540.553,538.863,0.0
52472.0,STARLINK-3881,PAYLOAD,2024-06-16 20:02:27,15.08837745,0.0001094,53.2186,11.1391,98.7711,261.3405,0.00016092,2.274e-05,0.0,0 STARLINK-3881,1 52472U 22049X   24168.83504141  .00002274  00000-0  16092-3 0  9990,2 52472  53.2186  11.1391 0001094  98.7711 261.3405 15.08837745117019,6917.887,95.438,540.509,538.995,0.0
52472.0,STARLINK-3881,PAYLOAD,2024-06-16 23:13:13,15.08844019,0.0001473,53.2196,10.5431,98.0196,262.0963,6.6987e-05,7.78e-06,0.0,0 STARLINK-3881,1 52472U 22049X   24168.96752078  .00000778  00000-0  66987-4 0  9994,2 52472  53.2196  10.5431 0001473  98.0196 262.0963 15.08844019117030,6917.868,95.437,540.752,538.714,0.0
52472.0,STARLINK-3881,PAYLOAD,2024-06-17 23:04:01,15.08833175,0.0001666,53.2195,6.0816,113.4131,246.7036,-2.8665e-05,-7.44e-06,0.0,0 STARLINK-3881,1 52472U 22049X   24169.96113151 -.00000744  00000-0 -28665-4 0  9994,2 52472  53.2195   6.0816 0001666 113.4131 246.7036 15.08833175117346,6917.901,95.438,540.919,538.614,0.0
52472.0,STARLINK-3881,PAYLOAD,2024-06-18 19:44:01,15.08845259,0.0001181,53.2181,2.2196,86.9916,273.1211,9.2962e-05,1.192e-05,0.0,0 STARLINK-3881,1 52472U 22049X   24170.82223936  .00001192  00000-0  92962-4 0  9991,2 52472  53.2181   2.2196 0001181  86.9916 273.1211 15.08845259117476,6917.864,95.437,540.546,538.912,0.0
52472.0,STARLINK-3881,PAYLOAD,2024-06-19 05:16:20,15.08841749,0.0001163,53.2163,0.4306,79.8129,280.2994,7.1923e-05,8.57e-06,0.0,0 STARLINK-3881,1 52472U 22049X   24171.21968143  .00000857  00000-0  71923-4 0  9992,2 52472  53.2163   0.4306 0001163  79.8129 280.2994 15.08841749117372,6917.875,95.437,540.545,538.935,0.0
52472.0,STARLINK-3881,PAYLOAD,2024-06-19 17:59:26,15.08832813,0.0001537,53.2194,358.054,108.4818,251.6342,-4.6488e-05,-1.028e-05,0.0,0 STARLINK-3881,1 52472U 22049X   24171.74961447 -.00001028  00000-0 -46488-4 0  9991,2 52472  53.2194 358.0540 0001537 108.4818 251.6342 15.08832813117615,6917.902,95.438,540.831,538.704,0.0
52472.0,STARLINK-3881,PAYLOAD,2024-06-20 11:28:40,15.08836495,0.0001217,53.2183,354.7873,94.2247,265.8885,2.5105e-05,1.12e-06,0.0,0 STARLINK-3881,1 52472U 22049X   24172.47825201  .00000112  00000-0  25105-4 0  9993,2 52472  53.2183 354.7873 0001217  94.2247 265.8885 15.08836495117561,6917.891,95.438,540.598,538.914,0.0
52472.0,STARLINK-3881,PAYLOAD,2024-06-20 19:25:36,15.08843943,0.0001212,53.2188,353.3004,90.1181,269.995,-2.0194e-05,-6.09e-06,0.0,0 STARLINK-3881,1 52472U 22049X   24172.80944979 -.00000609  00000-0 -20194-4 0  9990,2 52472  53.2188 353.3004 0001212  90.1181 269.9950 15.08843943117771,6917.868,95.437,540.572,538.895,0.0
52472.0,STARLINK-3881,PAYLOAD,2024-06-21 11:19:28,15.08832436,0.0001154,53.2183,350.3274,96.1908,263.9216,0.00013207,1.814e-05,0.0,0 STARLINK-3881,1 52472U 22049X   24173.47185440  .00001814  00000-0  13207-3 0  9997,2 52472  53.2183 350.3274 0001154  96.1908 263.9216 15.08832436117875,6917.904,95.438,540.567,538.97,0.0
